[{"OBJECT_NAME":"ONEWEB-0057","OBJECT_ID":"2020-008AF","EPOCH":"2026-04-06T21:44:41.100000","MEAN_MOTION":13.10373468,"ECCENTRICITY":0.0001558,"INCLINATION":87.883,"RA_OF_ASC_NODE":50.4547,"ARG_OF_PERICENTER":94.9839,"MEAN_ANOMALY":265.1466,"EPHEMERIS_TYPE":0,"CLASSIFICATION_TYPE":"U","NORAD_CAT_ID":45160,"ELEMENT_SET_NO":999,"REV_AT_EPOCH":29901,"BSTAR":-0.0013284000000000002,"MEAN_MOTION_DOT":-4.51e-06,"MEAN_MOTION_DDOT":0.0},{"OBJECT_NAME":"ONEWEB-0058","OBJECT_ID":"2020-008AG","EPOCH":"2026-04-07T02:55:25.603968","MEAN_MOTION":13.10370487,"ECCENTRICITY":0.0002118,"INCLINATION":87.8825,"RA_OF_ASC_NODE":50.4203,"ARG_OF_PERICENTER":80.7807,"MEAN_ANOMALY":279.356,"EPHEMERIS_TYPE":0,"CLASSIFICATION_TYPE":"U","NORAD_CAT_ID":45161,"ELEMENT_SET_NO":999,"REV_AT_EPOCH":29911,"BSTAR":-0.0019327,"MEAN_MOTION_DOT":-6.62e-06,"MEAN_MOTION_DDOT":0.0},{"OBJECT_NAME":"ONEWEB-0059","OBJECT_ID":"2020-008AH","EPOCH":"2026-04-07T02:50:26.915712","MEAN_MOTION":13.10372848,"ECCENTRICITY":0.0001947,"INCLINATION":87.8821,"RA_OF_ASC_NODE":50.4214,"ARG_OF_PERICENTER":86.3429,"MEAN_ANOMALY":273.7921,"EPHEMERIS_TYPE":0,"CLASSIFICATION_TYPE":"U","NORAD_CAT_ID":45162,"ELEMENT_SET_NO":999,"REV_AT_EPOCH":29901,"BSTAR":-0.0015894,"MEAN_MOTION_DOT":-5.42e-06,"MEAN_MOTION_DDOT":0.0},{"OBJECT_NAME":"ONEWEB-0062","OBJECT_ID":"2020-008AJ","EPOCH":"2026-04-07T03:27:31.674240","MEAN_MOTION":13.10375607,"ECCENTRICITY":0.0002285,"INCLINATION":87.8831,"RA_OF_ASC_NODE":50.3998,"ARG_OF_PERICENTER":75.4489,"MEAN_ANOMALY":284.6892,"EPHEMERIS_TYPE":0,"CLASSIFICATION_TYPE":"U","NORAD_CAT_ID":45163,"ELEMENT_SET_NO":999,"REV_AT_EPOCH":29888,"BSTAR":-2.9158e-05,"MEAN_MOTION_DOT":2e-08,"MEAN_MOTION_DDOT":0.0},{"OBJECT_NAME":"ONEWEB-0065","OBJECT_ID":"2020-008AK","EPOCH":"2026-04-07T02:21:35.498592","MEAN_MOTION":13.10370453,"ECCENTRICITY":0.0001496,"INCLINATION":87.8822,"RA_OF_ASC_NODE":50.4166,"ARG_OF_PERICENTER":82.2042,"MEAN_ANOMALY":277.9255,"EPHEMERIS_TYPE":0,"CLASSIFICATION_TYPE":"U","NORAD_CAT_ID":45164,"ELEMENT_SET_NO":999,"REV_AT_EPOCH":29857,"BSTAR":0.0012531999999999999,"MEAN_MOTION_DOT":4.5e-06,"MEAN_MOTION_DDOT":0.0},{"OBJECT_NAME":"ONEWEB-0066","OBJECT_ID":"2020-020A","EPOCH":"2026-04-07T04:34:36.824736","MEAN_MOTION":13.11416574,"ECCENTRICITY":0.0001948,"INCLINATION":87.8924,"RA_OF_ASC_NODE":35.1804,"ARG_OF_PERICENTER":83.8317,"MEAN_ANOMALY":276.3032,"EPHEMERIS_TYPE":0,"CLASSIFICATION_TYPE":"U","NORAD_CAT_ID":45424,"ELEMENT_SET_NO":999,"REV_AT_EPOCH":29337,"BSTAR":0.00035384,"MEAN_MOTION_DOT":1.38e-06,"MEAN_MOTION_DDOT":0.0},{"OBJECT_NAME":"ONEWEB-0067","OBJECT_ID":"2020-020B","EPOCH":"2026-04-07T05:29:30.150816","MEAN_MOTION":13.11324518,"ECCENTRICITY":0.000232,"INCLINATION":87.8947,"RA_OF_ASC_NODE":35.0842,"ARG_OF_PERICENTER":88.8808,"MEAN_ANOMALY":271.2585,"EPHEMERIS_TYPE":0,"CLASSIFICATION_TYPE":"U","NORAD_CAT_ID":45425,"ELEMENT_SET_NO":999,"REV_AT_EPOCH":29343,"BSTAR":0.024018,"MEAN_MOTION_DOT":8.521e-05,"MEAN_MOTION_DDOT":0.0},{"OBJECT_NAME":"ONEWEB-0080","OBJECT_ID":"2020-020C","EPOCH":"2026-04-07T01:48:46.149696","MEAN_MOTION":13.11397692,"ECCENTRICITY":0.0002051,"INCLINATION":87.8918,"RA_OF_ASC_NODE":35.1959,"ARG_OF_PERICENTER":74.2263,"MEAN_ANOMALY":285.9091,"EPHEMERIS_TYPE":0,"CLASSIFICATION_TYPE":"U","NORAD_CAT_ID":45426,"ELEMENT_SET_NO":999,"REV_AT_EPOCH":29338,"BSTAR":0.0062578,"MEAN_MOTION_DOT":2.23e-05,"MEAN_MOTION_DDOT":0.0},{"OBJECT_NAME":"ONEWEB-0090","OBJECT_ID":"2020-020D","EPOCH":"2026-04-07T02:30:17.652672","MEAN_MOTION":13.11419107,"ECCENTRICITY":0.0001906,"INCLINATION":87.8921,"RA_OF_ASC_NODE":35.1956,"ARG_OF_PERICENTER":78.0593,"MEAN_ANOMALY":282.0748,"EPHEMERIS_TYPE":0,"CLASSIFICATION_TYPE":"U","NORAD_CAT_ID":45427,"ELEMENT_SET_NO":999,"REV_AT_EPOCH":29335,"BSTAR":-0.00015495,"MEAN_MOTION_DOT":-4.2e-07,"MEAN_MOTION_DDOT":0.0},{"OBJECT_NAME":"ONEWEB-0061","OBJECT_ID":"2020-020E","EPOCH":"2026-04-07T05:06:09.423648","MEAN_MOTION":13.11414691,"ECCENTRICITY":0.0001886,"INCLINATION":87.8914,"RA_OF_ASC_NODE":35.16,"ARG_OF_PERICENTER":79.4116,"MEAN_ANOMALY":280.7224,"EPHEMERIS_TYPE":0,"CLASSIFICATION_TYPE":"U","NORAD_CAT_ID":45428,"ELEMENT_SET_NO":999,"REV_AT_EPOCH":29332,"BSTAR":0.00054181,"MEAN_MOTION_DOT":2.05e-06,"MEAN_MOTION_DDOT":0.0},{"OBJECT_NAME":"ONEWEB-0081","OBJECT_ID":"2020-020F","EPOCH":"2026-04-07T04:39:31.020192","MEAN_MOTION":13.11417995,"ECCENTRICITY":0.000184,"INCLINATION":87.8911,"RA_OF_ASC_NODE":35.1782,"ARG_OF_PERICENTER":85.9825,"MEAN_ANOMALY":274.1514,"EPHEMERIS_TYPE":0,"CLASSIFICATION_TYPE":"U","NORAD_CAT_ID":45429,"ELEMENT_SET_NO":999,"REV_AT_EPOCH":29343,"BSTAR":0.0018221000000000001,"MEAN_MOTION_DOT":6.59e-06,"MEAN_MOTION_DDOT":0.0},{"OBJECT_NAME":"ONEWEB-0069","OBJECT_ID":"2020-020G","EPOCH":"2026-04-07T06:13:29.785728","MEAN_MOTION":13.11418298,"ECCENTRICITY":0.0001822,"INCLINATION":87.8917,"RA_OF_ASC_NODE":35.1599,"ARG_OF_PERICENTER":81.9498,"MEAN_ANOMALY":278.1837,"EPHEMERIS_TYPE":0,"CLASSIFICATION_TYPE":"U","NORAD_CAT_ID":45430,"ELEMENT_SET_NO":999,"REV_AT_EPOCH":29337,"BSTAR":0.00054515,"MEAN_MOTION_DOT":2.06e-06,"MEAN_MOTION_DDOT":0.0},{"OBJECT_NAME":"ONEWEB-0031","OBJECT_ID":"2020-020H","EPOCH":"2026-04-06T20:23:51.125856","MEAN_MOTION":13.11415356,"ECCENTRICITY":0.0002009,"INCLINATION":87.8908,"RA_OF_ASC_NODE":35.2574,"ARG_OF_PERICENTER":75.5402,"MEAN_ANOMALY":284.5949,"EPHEMERIS_TYPE":0,"CLASSIFICATION_TYPE":"U","NORAD_CAT_ID":45431,"ELEMENT_SET_NO":999,"REV_AT_EPOCH":29330,"BSTAR":-0.0013576,"MEAN_MOTION_DOT":-4.68e-06,"MEAN_MOTION_DDOT":0.0},{"OBJECT_NAME":"ONEWEB-0027","OBJECT_ID":"2020-020J","EPOCH":"2026-04-07T05:30:38.216736","MEAN_MOTION":13.17647412,"ECCENTRICITY":0.0001864,"INCLINATION":87.9193,"RA_OF_ASC_NODE":19.9373,"ARG_OF_PERICENTER":66.8662,"MEAN_ANOMALY":293.2666,"EPHEMERIS_TYPE":0,"CLASSIFICATION_TYPE":"U","NORAD_CAT_ID":45432,"ELEMENT_SET_NO":999,"REV_AT_EPOCH":29701,"BSTAR":0.00033024,"MEAN_MOTION_DOT":1.41e-06,"MEAN_MOTION_DDOT":0.0},{"OBJECT_NAME":"ONEWEB-0064","OBJECT_ID":"2020-020K","EPOCH":"2026-04-07T01:51:00.767808","MEAN_MOTION":13.11415084,"ECCENTRICITY":0.0001943,"INCLINATION":87.8906,"RA_OF_ASC_NODE":35.2023,"ARG_OF_PERICENTER":74.4089,"MEAN_ANOMALY":285.7253,"EPHEMERIS_TYPE":0,"CLASSIFICATION_TYPE":"U","NORAD_CAT_ID":45433,"ELEMENT_SET_NO":999,"REV_AT_EPOCH":29336,"BSTAR":-0.0011579000000000001,"MEAN_MOTION_DOT":-3.98e-06,"MEAN_MOTION_DDOT":0.0},{"OBJECT_NAME":"ONEWEB-0018","OBJECT_ID":"2020-020L","EPOCH":"2026-04-07T04:27:16.975296","MEAN_MOTION":13.11418434,"ECCENTRICITY":0.0002234,"INCLINATION":87.8914,"RA_OF_ASC_NODE":35.1799,"ARG_OF_PERICENTER":85.437,"MEAN_ANOMALY":274.7013,"EPHEMERIS_TYPE":0,"CLASSIFICATION_TYPE":"U","NORAD_CAT_ID":45434,"ELEMENT_SET_NO":999,"REV_AT_EPOCH":29332,"BSTAR":0.00010981000000000001,"MEAN_MOTION_DOT":5.2e-07,"MEAN_MOTION_DDOT":0.0}]