ONEWEB-0057             
1 45160U 20008AF  26096.90603125 -.00000451  00000+0 -13284-2 0  9996
2 45160  87.8830  50.4547 0001558  94.9839 265.1466 13.10373468299015
ONEWEB-0058             
1 45161U 20008AG  26097.12182412 -.00000662  00000+0 -19327-2 0  9991
2 45161  87.8825  50.4203 0002118  80.7807 279.3560 13.10370487299111
ONEWEB-0059             
1 45162U 20008AH  26097.11836708 -.00000542  00000+0 -15894-2 0  9997
2 45162  87.8821  50.4214 0001947  86.3429 273.7921 13.10372848299012
ONEWEB-0062             
1 45163U 20008AJ  26097.14411660  .00000002  00000+0 -29158-4 0  9997
2 45163  87.8831  50.3998 0002285  75.4489 284.6892 13.10375607298881
ONEWEB-0065             
1 45164U 20008AK  26097.09832753  .00000450  00000+0  12532-2 0  9994
2 45164  87.8822  50.4166 0001496  82.2042 277.9255 13.10370453298572
ONEWEB-0066             
1 45424U 20020A   26097.19070399  .00000138  00000+0  35384-3 0  9992
2 45424  87.8924  35.1804 0001948  83.8317 276.3032 13.11416574293372
ONEWEB-0067             
1 45425U 20020B   26097.22882119  .00008521  00000+0  24018-1 0  9992
2 45425  87.8947  35.0842 0002320  88.8808 271.2585 13.11324518293434
ONEWEB-0080             
1 45426U 20020C   26097.07553414  .00002230  00000+0  62578-2 0  9994
2 45426  87.8918  35.1959 0002051  74.2263 285.9091 13.11397692293389
ONEWEB-0090             
1 45427U 20020D   26097.10437098 -.00000042  00000+0 -15495-3 0  9996
2 45427  87.8921  35.1956 0001906  78.0593 282.0748 13.11419107293357
ONEWEB-0061             
1 45428U 20020E   26097.21260907  .00000205  00000+0  54181-3 0  9996
2 45428  87.8914  35.1600 0001886  79.4116 280.7224 13.11414691293323
ONEWEB-0081             
1 45429U 20020F   26097.19410903  .00000659  00000+0  18221-2 0  9994
2 45429  87.8911  35.1782 0001840  85.9825 274.1514 13.11417995293432
ONEWEB-0069             
1 45430U 20020G   26097.25937252  .00000206  00000+0  54515-3 0  9999
2 45430  87.8917  35.1599 0001822  81.9498 278.1837 13.11418298293370
ONEWEB-0031             
1 45431U 20020H   26096.84989729 -.00000468  00000+0 -13576-2 0  9993
2 45431  87.8908  35.2574 0002009  75.5402 284.5949 13.11415356293307
ONEWEB-0027             
1 45432U 20020J   26097.22960899  .00000141  00000+0  33024-3 0  9991
2 45432  87.9193  19.9373 0001864  66.8662 293.2666 13.17647412297011
ONEWEB-0064             
1 45433U 20020K   26097.07709222 -.00000398  00000+0 -11579-2 0  9992
2 45433  87.8906  35.2023 0001943  74.4089 285.7253 13.11415084293366
ONEWEB-0018             
1 45434U 20020L   26097.18561314  .00000052  00000+0  10981-3 0  9995
2 45434  87.8914  35.1799 0002234  85.4370 274.7013 13.11418434293324
